STARLINK-1506           
1 45747U 20038T   26068.66028804  .00025380  00000+0  97997-3 0  9997
2 45747  53.0733 202.5028 0002514 227.7836 132.2949 15.26134655316688
STARLINK-31479          
1 59316U 24056W   26068.53557946  .00000233  00000+0  17998-4 0  9992
2 59316  43.0025 235.6488 0001792 279.3374  80.7275 15.27578422111083
